ONEWEB-0665             
1 55825U 23029AF  24338.55089251  .00000062  00000+0  13308-3 0  9991
2 55825  87.9025  41.2094 0001586  90.7833 269.3478 13.14500773 85753
ONEWEB-0666             
1 55826U 23029AG  24338.58489503  .00000017  00000+0  97365-5 0  9996
2 55826  87.9272  26.0118 0002086 106.8210 253.3152 13.20772510 87155
ONEWEB-0667             
1 55827U 23029AH  24338.57860707  .00000130  00000+0  28863-3 0  9996
2 55827  87.9275  25.9460 0001868  90.9253 269.2094 13.20770874 87145
ONEWEB-0669             
1 55828U 23029AJ  24338.57385706  .00000095  00000+0  20240-3 0  9999
2 55828  87.9274  25.9836 0002571 106.0405 254.1011 13.20770716 87149
ONEWEB-0670             
1 55829U 23029AK  24337.91974836  .00000081  00000+0  18417-3 0  9993
2 55829  87.9019  41.3460 0002114  89.4729 270.6643 13.14502928 85691
ONEWEB-0671             
1 55830U 23029AL  24338.47413763  .00000128  00000+0  28618-3 0  9990
2 55830  87.9183  56.4763 0001928  92.3176 267.8177 13.19724366 84943
ONEWEB-0672             
1 55831U 23029AM  24338.56911569  .00000105  00000+0  22590-3 0  9996
2 55831  87.9267  25.9691 0001998 108.0370 252.0981 13.20769720 87145
ONEWEB-0673             
1 55832U 23029AN  24338.29880613  .00000094  00000+0  20264-3 0  9995
2 55832  87.9189  56.4770 0001461  96.2306 263.8993 13.19725928 84924
